{"type":"FeatureCollection","features":[{"type":"Feature","properties":{},"geometry":{"coordinates":[[6.649943198520248,52.364376908111865],[6.648951233136074,52.36377113702889],[6.6482428226148045,52.363334135619255],[6.647875753223957,52.363170236798965],[6.646994492387307,52.362838130820535],[6.646513104359343,52.36332283037902],[6.646342095250532,52.3635318914192],[6.645522417336906,52.36436904213704],[6.644933867416711,52.36496508516831],[6.644348030604334,52.36550018331974],[6.643843139061801,52.36589143773821],[6.640851033994807,52.368121733827735],[6.638677843025164,52.36979092539275],[6.63783767229026,52.370290542508],[6.635822225281316,52.37134979046482],[6.6340595486846325,52.37243740550596],[6.63320740601813,52.372981004825135],[6.632173404595079,52.37378517817655],[6.631711607879055,52.374143220964044],[6.632002553241023,52.37427153127683],[6.631710514598325,52.37414288133678],[6.630153765047737,52.375298448844546],[6.628147074309112,52.376808325681566],[6.628371280640323,52.376903117999234],[6.628145379913576,52.37680860387681],[6.627214028904973,52.37749496555321],[6.62613865387064,52.37831912914322],[6.6263496805467526,52.37841216326112]],"type":"LineString"}}]}